0 IRIDIUM 33 DEB
1 36496U 97051WN  13281.78620241  .00015795  00000-0  29919-2 0  2762
2 36496 086.3459 106.3998 0029564 303.9436 055.8966 14.63939304211112
0 IRIDIUM 33 DEB
1 36496U 97051WN  13283.49497909  .00023331  00000-0  44089-2 0  2776
2 36496 086.3458 105.6396 0029442 297.8706 061.9525 14.64021154211363
0 IRIDIUM 33 DEB
1 36496U 97051WN  13285.47706512  .00019125  00000-0  36106-2 0  2787
2 36496 086.3454 104.7578 0029396 290.8423 068.9642 14.64082616211657
0 IRIDIUM 33 DEB
1 36496U 97051WN  13287.73242764  .00029338  00000-0  55212-2 0  2799
2 36496 086.3420 103.7529 0030013 283.2803 076.5062 14.64165161211985
0 IRIDIUM 33 DEB
1 36496U 97051WN  13287.93745412  .00036689  00000-0  68966-2 0  2808
2 36496 086.3428 103.6637 0030028 282.5942 077.1913 14.64175228212016
0 IRIDIUM 33 DEB
1 36496U 97051WN  13289.23591646  .00029203  00000-0  54874-2 0  2819
2 36496 086.3444 103.0867 0029560 277.5908 082.1947 14.64242917212202
0 IRIDIUM 33 DEB
1 36496U 97051WN  13290.19264482  .00031047  00000-0  58279-2 0  2824
2 36496 086.3439 102.6605 0029482 274.0651 085.7192 14.64280993212343
0 IRIDIUM 33 DEB
1 36496U 97051WN  13293.19931592  .00028520  00000-0  53372-2 0  2832
2 36496 086.3462 101.3225 0029573 263.6820 096.1024 14.64429374212782
0 IRIDIUM 33 DEB
1 36496U 97051WN  13294.42923239  .00033546  00000-0  62664-2 0  2847
2 36496 086.3456 100.7750 0029452 259.4373 100.3521 14.64486038212963
0 IRIDIUM 33 DEB
1 36496U 97051WN  13295.72742271  .00036638  00000-0  68311-2 0  2857
2 36496 086.3464 100.1972 0029347 254.9717 104.8247 14.64555012213152
